{"type": "FeatureCollection", "features": [ {"type": "Feature", "properties": {"norad_id": 45358, "name": "COSMOS 2545 (760)", "group": "glo-ops", "lat": -34.49579766876438, "lon": -59.93626812512804, "alt_km": 19125.305694274404, "timestamp": "2025-12-04T21:36:16.134333+00:00", "meta": {"OBJECT_NAME": "COSMOS 2545 (760)", "OBJECT_ID": "2020-018A", "EPOCH": "2025-12-01T04:43:25.038912", "MEAN_MOTION": 2.13102323, "ECCENTRICITY": 0.00119194, "INCLINATION": 64.4762, "RA_OF_ASC_NODE": 319.3749, "ARG_OF_PERICENTER": 248.338, "MEAN_ANOMALY": 111.5456, "EPHEMERIS_TYPE": 0, "CLASSIFICATION_TYPE": "U", "NORAD_CAT_ID": 45358, "ELEMENT_SET_NO": 999, "REV_AT_EPOCH": 4444, "BSTAR": 0, "MEAN_MOTION_DOT": -2.8e-07, "MEAN_MOTION_DDOT": 0}, "tle": {"line1": "1 45358U 20018A   25335.19681758 -.00000028  00000+0  00000+0 0  9998", "line2": "2 45358  64.4762 319.3749 0011919 248.3380 111.5456  2.13102323 44447"}}, "geometry": {"type": "Point", "coordinates": [-59.93626812512804, -34.49579766876438]}}, {"type": "Feature", "properties": {"norad_id": 46805, "name": "COSMOS 2547 (705K)", "group": "glo-ops", "lat": 2.8919445111218827, "lon": 17.585841705771653, "alt_km": 19120.469647087808, "timestamp": "2025-12-04T21:36:16.134344+00:00", "meta": {"OBJECT_NAME": "COSMOS 2547 (705K)", "OBJECT_ID": "2020-075A", "EPOCH": "2025-12-04T04:48:34.576416", "MEAN_MOTION": 2.13099889, "ECCENTRICITY": 0.00062642, "INCLINATION": 64.5958, "RA_OF_ASC_NODE": 198.9817, "ARG_OF_PERICENTER": 229.2044, "MEAN_ANOMALY": 130.8379, "EPHEMERIS_TYPE": 0, "CLASSIFICATION_TYPE": "U", "NORAD_CAT_ID": 46805, "ELEMENT_SET_NO": 999, "REV_AT_EPOCH": 3975, "BSTAR": 0, "MEAN_MOTION_DOT": 1.01e-06, "MEAN_MOTION_DDOT": 0}, "tle": {"line1": "1 46805U 20075A   25338.20040019  .00000101  00000+0  00000+0 0  9994", "line2": "2 46805  64.5958 198.9817 0006264 229.2044 130.8379  2.13099889 39750"}}, "geometry": {"type": "Point", "coordinates": [17.585841705771653, 2.8919445111218827]}}, {"type": "Feature", "properties": {"norad_id": 52984, "name": "COSMOS 2557 (706K)", "group": "glo-ops", "lat": 43.7072200599137, "lon": -11.424305463033846, "alt_km": 19148.940651120873, "timestamp": "2025-12-04T21:36:16.134355+00:00", "meta": {"OBJECT_NAME": "COSMOS 2557 (706K)", "OBJECT_ID": "2022-075A", "EPOCH": "2025-12-04T08:46:35.993568", "MEAN_MOTION": 2.13101723, "ECCENTRICITY": 0.00137265, "INCLINATION": 64.4144, "RA_OF_ASC_NODE": 321.3461, "ARG_OF_PERICENTER": 276.6628, "MEAN_ANOMALY": 83.1807, "EPHEMERIS_TYPE": 0, "CLASSIFICATION_TYPE": "U", "NORAD_CAT_ID": 52984, "ELEMENT_SET_NO": 999, "REV_AT_EPOCH": 2656, "BSTAR": 0, "MEAN_MOTION_DOT": -4.7e-07, "MEAN_MOTION_DDOT": 0}, "tle": {"line1": "1 52984U 22075A   25338.36569437 -.00000047  00000+0  00000+0 0  9998", "line2": "2 52984  64.4144 321.3461 0013726 276.6628  83.1807  2.13101723 26565"}}, "geometry": {"type": "Point", "coordinates": [-11.424305463033846, 43.7072200599137]}}, {"type": "Feature", "properties": {"norad_id": 54031, "name": "COSMOS 2559 (707K)", "group": "glo-ops", "lat": -7.930518743239705, "lon": 145.2385734226267, "alt_km": 19100.966291935136, "timestamp": "2025-12-04T21:36:16.134366+00:00", "meta": {"OBJECT_NAME": "COSMOS 2559 (707K)", "OBJECT_ID": "2022-130A", "EPOCH": "2025-12-03T17:10:26.893920", "MEAN_MOTION": 2.13101235, "ECCENTRICITY": 0.00120262, "INCLINATION": 64.3873, "RA_OF_ASC_NODE": 321.4588, "ARG_OF_PERICENTER": 192.7508, "MEAN_ANOMALY": 167.2215, "EPHEMERIS_TYPE": 0, "CLASSIFICATION_TYPE": "U", "NORAD_CAT_ID": 54031, "ELEMENT_SET_NO": 999, "REV_AT_EPOCH": 2452, "BSTAR": 0, "MEAN_MOTION_DOT": -4.4e-07, "MEAN_MOTION_DDOT": 0}, "tle": {"line1": "1 54031U 22130A   25337.71558905 -.00000044  00000+0  00000+0 0  9998", "line2": "2 54031  64.3873 321.4588 0012026 192.7508 167.2215  2.13101235 24525"}}, "geometry": {"type": "Point", "coordinates": [145.2385734226267, -7.930518743239705]}}, {"type": "Feature", "properties": {"norad_id": 54377, "name": "COSMOS 2564 (761)", "group": "glo-ops", "lat": -45.19867829056958, "lon": 170.7768007370433, "alt_km": 19139.931383223433, "timestamp": "2025-12-04T21:36:16.134378+00:00", "meta": {"OBJECT_NAME": "COSMOS 2564 (761)", "OBJECT_ID": "2022-161A", "EPOCH": "2025-12-03T13:26:12.799104", "MEAN_MOTION": 2.13101952, "ECCENTRICITY": 0.00087056, "INCLINATION": 64.7377, "RA_OF_ASC_NODE": 199.204, "ARG_OF_PERICENTER": 206.235, "MEAN_ANOMALY": 153.818, "EPHEMERIS_TYPE": 0, "CLASSIFICATION_TYPE": "U", "NORAD_CAT_ID": 54377, "ELEMENT_SET_NO": 999, "REV_AT_EPOCH": 2346, "BSTAR": 0, "MEAN_MOTION_DOT": 1.05e-06, "MEAN_MOTION_DDOT": 0}, "tle": {"line1": "1 54377U 22161A   25337.55987036  .00000105  00000+0  00000+0 0  9995", "line2": "2 54377  64.7377 199.2040 0008705 206.2350 153.8180  2.13101952 23460"}}, "geometry": {"type": "Point", "coordinates": [170.7768007370433, -45.19867829056958]}}, {"type": "Feature", "properties": {"norad_id": 57517, "name": "COSMOS 2569 (703K)", "group": "glo-ops", "lat": -53.351704873115835, "lon": 40.811848618487986, "alt_km": 19110.462545673632, "timestamp": "2025-12-04T21:36:16.134390+00:00", "meta": {"OBJECT_NAME": "COSMOS 2569 (703K)", "OBJECT_ID": "2023-114A", "EPOCH": "2025-12-01T16:42:34.469856", "MEAN_MOTION": 2.13103822, "ECCENTRICITY": 0.0010109, "INCLINATION": 65.1883, "RA_OF_ASC_NODE": 79.2867, "ARG_OF_PERICENTER": 287.0179, "MEAN_ANOMALY": 72.8703, "EPHEMERIS_TYPE": 0, "CLASSIFICATION_TYPE": "U", "NORAD_CAT_ID": 57517, "ELEMENT_SET_NO": 999, "REV_AT_EPOCH": 1805, "BSTAR": 0, "MEAN_MOTION_DOT": -1.6e-07, "MEAN_MOTION_DDOT": 0}, "tle": {"line1": "1 57517U 23114A   25335.69623229 -.00000016  00000+0  00000+0 0  9999", "line2": "2 57517  65.1883  79.2867 0010109 287.0179  72.8703  2.13103822 18055"}}, "geometry": {"type": "Point", "coordinates": [40.811848618487986, -53.351704873115835]}}, {"type": "Feature", "properties": {"norad_id": 63130, "name": "COSMOS 2584 (704K)", "group": "glo-ops", "lat": 22.493001750356644, "lon": 90.55144110832879, "alt_km": 19146.421195175342, "timestamp": "2025-12-04T21:36:16.134401+00:00", "meta": {"OBJECT_NAME": "COSMOS 2584 (704K)", "OBJECT_ID": "2025-042A", "EPOCH": "2025-11-26T10:06:10.904256", "MEAN_MOTION": 2.13103062, "ECCENTRICITY": 0.00075218, "INCLINATION": 64.9668, "RA_OF_ASC_NODE": 79.7019, "ARG_OF_PERICENTER": 212.3772, "MEAN_ANOMALY": 147.585, "EPHEMERIS_TYPE": 0, "CLASSIFICATION_TYPE": "U", "NORAD_CAT_ID": 63130, "ELEMENT_SET_NO": 999, "REV_AT_EPOCH": 572, "BSTAR": 0, "MEAN_MOTION_DOT": 1.8e-07, "MEAN_MOTION_DDOT": 0}, "tle": {"line1": "1 63130U 25042A   25330.42095954  .00000018  00000+0  00000+0 0  9994", "line2": "2 63130  64.9668  79.7019 0007521 212.3772 147.5850  2.13103062  5728"}}, "geometry": {"type": "Point", "coordinates": [90.55144110832879, 22.493001750356644]}}, {"type": "Feature", "properties": {"norad_id": 65590, "name": "COSMOS 2596 (708K)", "group": "glo-ops", "lat": 32.51308339969764, "lon": 124.22846526407972, "alt_km": 19160.31290463142, "timestamp": "2025-12-04T21:36:16.134412+00:00", "meta": {"OBJECT_NAME": "COSMOS 2596 (708K)", "OBJECT_ID": "2025-206B", "EPOCH": "2025-12-01T01:16:47.699904", "MEAN_MOTION": 2.13100271, "ECCENTRICITY": 0.00140756, "INCLINATION": 64.7507, "RA_OF_ASC_NODE": 321.8815, "ARG_OF_PERICENTER": 304.7151, "MEAN_ANOMALY": 127.6712, "EPHEMERIS_TYPE": 0, "CLASSIFICATION_TYPE": "U", "NORAD_CAT_ID": 65590, "ELEMENT_SET_NO": 999, "REV_AT_EPOCH": 168, "BSTAR": 0, "MEAN_MOTION_DOT": -2.6e-07, "MEAN_MOTION_DDOT": 0}, "tle": {"line1": "1 65590U 25206B   25335.05332986 -.00000026  00000+0  00000+0 0  9991", "line2": "2 65590  64.7507 321.8815 0014075 304.7151 127.6712  2.13100271  1680"}}, "geometry": {"type": "Point", "coordinates": [124.22846526407972, 32.51308339969764]}}]}